NORAD_CAT_ID,OBJECT_NAME,OBJECT_TYPE,EPOCH,MEAN_MOTION,ECCENTRICITY,INCLINATION,RA_OF_ASC_NODE,ARG_OF_PERICENTER,MEAN_ANOMALY,BSTAR,MEAN_MOTION_DOT,MEAN_MOTION_DDOT,TLE_LINE0,TLE_LINE1,TLE_LINE2,SEMIMAJOR_AXIS,PERIOD,APOGEE,PERIGEE,DECAYED
49160.0,STARLINK-3095,PAYLOAD,2023-09-14 21:01:03,14.98324828,0.0002933,70.0007,60.8408,267.4,92.6823,-6.2717e-05,-8.41e-06,0.0,0 STARLINK-3095,1 49160U 21082AG  23257.87573612 -.00000841  00000-0 -62717-4 0  9993,2 49160  70.0007  60.8408 0002933 267.4000  92.6823 14.98324828111213,6950.209,96.107,574.112,570.035,0.0
49160.0,STARLINK-3095,PAYLOAD,2023-09-15 13:02:23,14.98332113,0.0003222,70.0002,59.1579,269.5725,90.5065,2.9617e-05,2.6e-06,0.0,0 STARLINK-3095,1 49160U 21082AG  23258.54332875  .00000260  00000-0  29617-4 0  9997,2 49160  70.0002  59.1579 0003222 269.5725  90.5065 14.98332113111319,6950.186,96.107,574.291,569.812,0.0
49160.0,STARLINK-3095,PAYLOAD,2023-09-15 17:50:47,14.9833341,0.0003095,70.0009,58.6539,268.1412,91.9393,5.819e-05,6.01e-06,0.0,0 STARLINK-3095,1 49160U 21082AG  23258.74360698  .00000601  00000-0  58190-4 0  9990,2 49160  70.0009  58.6539 0003095 268.1412  91.9393 14.98333410111356,6950.182,96.107,574.198,569.896,0.0
49160.0,STARLINK-3095,PAYLOAD,2023-09-16 13:04:24,14.98326826,0.0003096,70.0008,56.6336,267.9552,92.1252,9.9045e-05,1.089e-05,0.0,0 STARLINK-3095,1 49160U 21082AG  23259.54472962  .00001089  00000-0  99045-4 0  9992,2 49160  70.0008  56.6336 0003096 267.9552  92.1252 14.98326826111463,6950.203,96.107,574.219,569.916,0.0
49160.0,STARLINK-3095,PAYLOAD,2023-09-16 17:52:48,14.98327056,0.0002979,70.0013,56.129,267.9004,92.1814,0.0001038,1.146e-05,0.0,0 STARLINK-3095,1 49160U 21082AG  23259.74500981  .00001146  00000-0  10380-3 0  9995,2 49160  70.0013  56.1290 0002979 267.9004  92.1814 14.98327056111509,6950.202,96.107,574.137,569.997,0.0
49160.0,STARLINK-3095,PAYLOAD,2023-09-17 13:06:25,14.98332405,0.0003074,70.0014,54.1096,268.5713,91.5094,1.8274e-05,1.25e-06,0.0,0 STARLINK-3095,1 49160U 21082AG  23260.54612851  .00000125  00000-0  18274-4 0  9992,2 49160  70.0014  54.1096 0003074 268.5713  91.5094 14.98332405111612,6950.185,96.107,574.187,569.914,0.0
49160.0,STARLINK-3095,PAYLOAD,2023-09-17 17:54:49,14.98333336,0.0003081,70.0012,53.6042,268.1565,91.9241,1.9028e-05,1.34e-06,0.0,0 STARLINK-3095,1 49160U 21082AG  23260.74640749  .00000134  00000-0  19028-4 0  9999,2 49160  70.0012  53.6042 0003081 268.1565  91.9241 14.98333336111650,6950.183,96.107,574.189,569.906,0.0
49160.0,STARLINK-3095,PAYLOAD,2023-09-18 13:08:26,14.98329472,0.0003022,70.0015,51.5848,269.4229,90.6583,6.6375e-06,-1.4e-07,0.0,0 STARLINK-3095,1 49160U 21082AG  23261.54752941 -.00000014  00000-0  66375-5 0  9992,2 49160  70.0015  51.5848 0003022 269.4229  90.6583 14.98329472111763,6950.195,96.107,574.16,569.959,0.0
49160.0,STARLINK-3095,PAYLOAD,2023-09-18 17:56:50,14.98332696,0.0002977,70.0015,51.0798,269.5279,90.5539,4.4769e-05,4.41e-06,0.0,0 STARLINK-3095,1 49160U 21082AG  23261.74780635  .00000441  00000-0  44769-4 0  9990,2 49160  70.0015  51.0798 0002977 269.5279  90.5539 14.98332696111803,6950.185,96.107,574.119,569.98,0.0
49160.0,STARLINK-3095,PAYLOAD,2023-09-18 19:32:58,14.98332942,0.0002994,70.0014,50.9114,269.6241,90.4575,4.5576e-05,4.51e-06,0.0,0 STARLINK-3095,1 49160U 21082AG  23261.81456614  .00000451  00000-0  45576-4 0  9993,2 49160  70.0014  50.9114 0002994 269.6241  90.4575 14.98332942111804,6950.184,96.107,574.13,569.968,0.0
49160.0,STARLINK-3095,PAYLOAD,2023-09-19 17:58:50,14.98336919,0.0003041,70.0013,48.5548,270.3783,89.7027,0.00010146,1.118e-05,0.0,0 STARLINK-3095,1 49160U 21082AG  23262.74920015  .00001118  00000-0  10146-3 0  9992,2 49160  70.0013  48.5548 0003041 270.3783  89.7027 14.98336919111958,6950.171,96.107,574.15,569.923,0.0
49160.0,STARLINK-3095,PAYLOAD,2023-09-20 10:00:12,14.98328422,0.0002589,70.0027,46.8708,271.7196,88.3666,-7.8899e-05,-1.034e-05,0.0,0 STARLINK-3095,1 49160U 21082AG  23263.41681142 -.00001034  00000-0 -78899-4 0  9991,2 49160  70.0027  46.8708 0002589 271.7196  88.3666 14.98328422112057,6950.198,96.107,573.862,570.263,0.0
49160.0,STARLINK-3095,PAYLOAD,2023-09-20 13:12:29,14.98320785,0.0002946,70.0021,46.5352,271.8588,88.2233,-7.1489e-05,-9.46e-06,0.0,0 STARLINK-3095,1 49160U 21082AG  23263.55033628 -.00000946  00000-0 -71489-4 0  9995,2 49160  70.0021  46.5352 0002946 271.8588  88.2233 14.98320785112060,6950.221,96.108,574.134,570.039,0.0
49160.0,STARLINK-3095,PAYLOAD,2023-09-20 19:37:01,14.98322775,0.000312,70.0013,45.8614,267.5718,92.5084,-6.036e-05,-8.13e-06,0.0,0 STARLINK-3095,1 49160U 21082AG  23263.81737545 -.00000813  00000-0 -60360-4 0  9992,2 49160  70.0013  45.8614 0003120 267.5718  92.5084 14.98322775112104,6950.215,96.107,574.249,569.912,0.0
49160.0,STARLINK-3095,PAYLOAD,2023-09-21 13:14:29,14.98330622,0.0003198,70.0007,44.0091,270.0195,90.0597,2.8898e-05,2.52e-06,0.0,0 STARLINK-3095,1 49160U 21082AG  23264.55172997  .00000252  00000-0  28898-4 0  9993,2 49160  70.0007  44.0091 0003198 270.0195  90.0597 14.98330622112214,6950.191,96.107,574.279,569.833,0.0
49160.0,STARLINK-3095,PAYLOAD,2023-09-21 16:26:45,14.98335134,0.0003163,70.001,43.6732,268.2723,91.8073,4.3797e-05,4.3e-06,0.0,0 STARLINK-3095,1 49160U 21082AG  23264.68524671  .00000430  00000-0  43797-4 0  9990,2 49160  70.0010  43.6732 0003163 268.2723  91.8073 14.98335134112247,6950.177,96.107,574.24,569.844,0.0
49160.0,STARLINK-3095,PAYLOAD,2023-09-21 19:39:01,14.9833652,0.0003018,70.0013,43.3364,265.7452,94.3362,5.3322e-05,5.43e-06,0.0,0 STARLINK-3095,1 49160U 21082AG  23264.81876542  .00000543  00000-0  53322-4 0  9992,2 49160  70.0013  43.3364 0003018 265.7452  94.3362 14.98336520112258,6950.173,96.107,574.135,569.94,0.0
49160.0,STARLINK-3095,PAYLOAD,2023-09-22 10:04:13,14.98340522,0.0003263,70.0012,41.8214,268.103,91.9755,0.00029794,3.465e-05,0.0,0 STARLINK-3095,1 49160U 21082AG  23265.41959511  .00003465  00000-0  29794-3 0  9998,2 49160  70.0012  41.8214 0003263 268.1030  91.9755 14.98340522112352,6950.16,96.106,574.293,569.758,0.0
49160.0,STARLINK-3095,PAYLOAD,2023-09-22 13:16:28,14.98342349,0.0003166,70.0015,41.4852,267.1311,92.9485,0.00030848,3.591e-05,0.0,0 STARLINK-3095,1 49160U 21082AG  23265.55311326  .00003591  00000-0  30848-3 0  9991,2 49160  70.0015  41.4852 0003166 267.1311  92.9485 14.98342349112363,6950.155,96.106,574.22,569.819,0.0
49160.0,STARLINK-3095,PAYLOAD,2023-09-22 19:41:00,14.98349111,0.0003441,70.001,40.8093,276.7772,83.2996,0.00039132,4.582e-05,0.0,0 STARLINK-3095,1 49160U 21082AG  23265.82014510  .00004582  00000-0  39132-3 0  9992,2 49160  70.0010  40.8093 0003441 276.7772  83.2996 14.98349111112400,6950.134,96.106,574.39,569.607,0.0
49160.0,STARLINK-3095,PAYLOAD,2023-09-23 11:42:23,14.98329065,0.0003306,70.0016,39.1288,266.3886,93.6895,-6.0371e-05,-8.13e-06,0.0,0 STARLINK-3095,1 49160U 21082AG  23266.48776705 -.00000813  00000-0 -60371-4 0  9991,2 49160  70.0016  39.1288 0003306 266.3886  93.6895 14.98329065112515,6950.196,96.107,574.359,569.763,0.0
49160.0,STARLINK-3095,PAYLOAD,2023-09-23 13:18:31,14.98329504,0.0003337,70.0012,38.9592,267.7047,92.373,-5.7073e-05,-7.74e-06,0.0,0 STARLINK-3095,1 49160U 21082AG  23266.55452662 -.00000774  00000-0 -57073-4 0  9993,2 49160  70.0012  38.9592 0003337 267.7047  92.3730 14.98329504112516,6950.194,96.107,574.379,569.74,0.0
49160.0,STARLINK-3095,PAYLOAD,2023-09-24 13:20:31,14.98336901,0.0003248,70.0017,36.4358,264.9249,95.1539,-0.0001254,-1.589e-05,0.0,0 STARLINK-3095,1 49160U 21082AG  23267.55592245 -.00001589  00000-0 -12540-3 0  9990,2 49160  70.0017  36.4358 0003248 264.9249  95.1539 14.98336901112661,6950.172,96.107,574.294,569.779,0.0
49160.0,STARLINK-3095,PAYLOAD,2023-09-24 18:08:55,14.98341763,0.0003216,70.0019,35.9313,262.9804,97.0989,-8.6704e-05,-1.128e-05,0.0,0 STARLINK-3095,1 49160U 21082AG  23267.75619731 -.00001128  00000-0 -86704-4 0  9995,2 49160  70.0019  35.9313 0003216 262.9804  97.0989 14.98341763112705,6950.157,96.106,574.257,569.786,0.0
49160.0,STARLINK-3095,PAYLOAD,2023-09-25 10:10:16,14.98321586,0.000324,70.0018,34.2458,269.6371,90.4416,0.00022516,2.594e-05,0.0,0 STARLINK-3095,1 49160U 21082AG  23268.42380218  .00002594  00000-0  22516-3 0  9991,2 49160  70.0018  34.2458 0003240 269.6371  90.4416 14.98321586112800,6950.219,96.108,574.336,569.832,0.0
49160.0,STARLINK-3095,PAYLOAD,2023-09-25 13:22:32,14.98323965,0.0003061,70.0017,33.9091,263.5495,96.5315,0.0001903,2.178e-05,0.0,0 STARLINK-3095,1 49160U 21082AG  23268.55732233  .00002178  00000-0  19030-3 0  9998,2 49160  70.0017  33.9091 0003061 263.5495  96.5315 14.98323965112818,6950.212,96.107,574.204,569.949,0.0
49160.0,STARLINK-3095,PAYLOAD,2023-09-25 18:10:56,14.98335227,0.0003211,70.0017,33.4045,268.2389,91.8402,0.0002341,2.702e-05,0.0,0 STARLINK-3095,1 49160U 21082AG  23268.75759425  .00002702  00000-0  23410-3 0  9992,2 49160  70.0017  33.4045 0003211 268.2389  91.8402 14.98335227112856,6950.177,96.107,574.273,569.81,0.0
49160.0,STARLINK-3095,PAYLOAD,2023-09-26 10:12:18,14.98321433,0.000335,70.0015,31.7212,269.0908,90.9867,-5.2728e-05,-7.22e-06,0.0,0 STARLINK-3095,1 49160U 21082AG  23269.42521264 -.00000722  00000-0 -52728-4 0  9992,2 49160  70.0015  31.7212 0003350 269.0908  90.9867 14.98321433112951,6950.219,96.108,574.413,569.756,0.0
49160.0,STARLINK-3095,PAYLOAD,2023-09-26 13:24:34,14.98321361,0.0003336,70.0017,31.3851,269.3466,90.7311,-5.4956e-05,-7.49e-06,0.0,0 STARLINK-3095,1 49160U 21082AG  23269.55873338 -.00000749  00000-0 -54956-4 0  9992,2 49160  70.0017  31.3851 0003336 269.3466  90.7311 14.98321361112967,6950.22,96.108,574.403,569.766,0.0
49160.0,STARLINK-3095,PAYLOAD,2023-09-26 18:12:58,14.98326529,0.0003163,70.0018,30.8801,265.0162,95.0636,-2.9414e-07,-9.7e-07,0.0,0 STARLINK-3095,1 49160U 21082AG  23269.75900916 -.00000097  00000-0 -29414-6 0  9996,2 49160  70.0018  30.8801 0003163 265.0162  95.0636 14.98326529113006,6950.204,96.107,574.267,569.87,0.0
